#aV2013  9 30  0  0  0.00000000     288 DD+AD WGS84 FIT  NGA
## 1760  86400.00000000   300.00000000 56565 0.0000000000000
+   31     1  2  3  4  5  6  7  8  9 10 11 12 13 14 15 16 17
+         18 19 20 21 22 23 24 25 26 27 28 29 31 32  0  0  0
+          0  0  0  0  0  0  0  0  0  0  0  0  0  0  0  0  0
+          0  0  0  0  0  0  0  0  0  0  0  0  0  0  0  0  0
+          0  0  0  0  0  0  0  0  0  0  0  0  0  0  0  0  0
++         2  2  2  2  2  2  2  2  2  2  2  2  2  2  2  2  2
++         2  2  2  2  2  2  2  2  2  2  2  2  2  2  2  0  0
++         0  0  0  0  0  0  0  0  0  0  0  0  0  0  0  0  0
++         0  0  0  0  0  0  0  0  0  0  0  0  0  0  0  0  0
++         0  0  0  0  0  0  0  0  0  0  0  0  0  0  0  0  0
%c cc cc ccc ccc cccc cccc cccc cccc ccccc ccccc ccccc ccccc
%c cc cc ccc ccc cccc cccc cccc cccc ccccc ccccc ccccc ccccc
%f  0.0000000  0.000000000  0.00000000000  0.000000000000000
%f  0.0000000  0.000000000  0.00000000000  0.000000000000000
%i    0    0    0    0      0      0      0      0         0
%i    0    0    0    0      0      0      0      0         0
/*      NGA, ST. LOUIS,MO.                                  
/*   EPHEMERIS COMPUTED FROM  1 DAYS OF DATA
/*   EPOCHA SMOOTHER  
/* CCCCCCCCCCCCCCCCCCCCCCCCCCCCCCCCCCCCCCCCCCCCCCCCCCCCCCCCC
*  2013  9 30 17 45  0.00000000                                                 
P  1  18468.622853   6209.078511  18068.716927     80.261266                    
V  1  10524.777139  20467.236576 -17656.476634      0.039005                    
P  2 -13643.898961 -23093.841101   1170.786873    453.761031                    
V  2   3217.462559   -622.575635  30895.978113      0.017841                    
P  3  17348.513817  10418.465990 -17833.963747    266.482372                    
V  3 -21009.391921   5363.994973 -17660.999765      0.051280                    
P  4  -3736.669094 -23064.261947  12078.670748      1.425577                    
V  4  11046.822904  11945.294037  25858.642912      0.005025                    
P  5  -7082.390222 -16410.894403 -19628.604316   -399.390269                    
V  5  13196.817050 -21218.323553  13149.077401      0.002770                    
P  6  10924.372112  13672.543872 -20020.414658     79.681669                    
V  6 -25331.443973   3249.311654 -11189.038560      0.186957                    
P  7  11764.546032  -9264.329296 -21857.534021    264.403956                    
V  7  14200.922490  23991.480109  -2832.318589      0.042108                    
P  8   4416.454166 -18491.709959 -18135.049136      8.791532                    
V  8  10933.921378  20788.434553 -18992.287312      0.002930                    
P  9   3080.566499 -19015.272318 -18759.790296    272.194364                    
V  9  12683.157702  18882.514289 -17685.112619      0.027253                    
P 10   7127.552688 -24169.321036  -7984.924995    -96.392889                    
V 10   7865.170418  -6877.122860  29371.520698     -0.013759                    
P 11  22711.289182  10247.855976   9067.515118   -424.481880                    
V 11   6237.686095  11411.062408 -26869.619441     -0.035449                    
P 12 -16333.040996    417.200915  20846.375917    159.385967                    
V 12  12927.844564 -23215.632933  10767.018379      0.022229                    
P 13  23369.323508  -5810.185077 -11495.771676     74.735672                    
V 13  14124.206495   2924.633650  27406.462653     -0.037895                    
P 14  -6160.573493  14436.791370  21620.002263    214.519066                    
V 14 -26867.715164  -1944.876571  -6567.852085     -0.009292                    
P 15 -25530.081805  -3725.552508  -6895.100121   -139.667979                    
V 15   8508.693639  -3544.175177 -29449.420004     -0.018741                    
P 16   5739.191560  16138.464593 -20230.640110   -245.575357                    
V 16 -14364.593684  21277.323945  13242.717860      0.008564                    
P 17   7515.372589 -14464.124501  21148.972147    -26.512982                    
V 17  26348.967114   1335.922794  -8774.213448     -0.037159                    
P 18 -16362.328631  19420.486690  -6731.167835    276.873772                    
V 18    870.729735 -10032.959521 -29575.487322      0.020365                    
P 19  23630.173854   8350.021032  -9535.675946   -408.007536                    
V 19 -11926.838535   1254.936347 -28390.837475     -0.027691                    
P 20  18073.259479  -5977.132351  18314.741234    126.064173                    
V 20  -8445.503511  22302.642540  15538.334568      0.026895                    
P 21 -10030.774180  12677.078261 -20413.453400   -321.290660                    
V 21 -15237.002414 -22882.431334  -7036.624053     -0.018741                    
P 22  -9640.892804  24317.745852   4318.607265    187.424134                    
V 22  -6032.667068   2727.270377 -30378.246106      0.019213                    
P 23  26760.255133   -761.785812   -740.824082     43.433163                    
V 23   1063.208449   2677.543955  31320.413962     -0.034537                    
P 24 -19052.806191 -10125.505215  15517.970431    -14.670199                    
V 24  -8644.321013 -17814.185223 -22177.953366     -0.006380                    
P 25 -17995.513869  14114.429666  13363.357931    152.804058                    
V 25   6411.471135 -15952.509657  25465.888462      0.039087                    
P 26 -15645.908132 -13179.845256 -17753.621796    215.654335                    
V 26  21144.679013    544.527550 -19453.378669      0.187785                    
P 27  14299.040484  12605.696421 -18512.253971    -42.648515                    
V 27 -23437.951405   2031.628328 -16716.313313     -0.043328                    
P 28  12808.738619 -23100.047320   2210.829860    296.851897                    
V 28   2953.188907   -614.843431 -32231.677127      0.030810                    
P 29 -24828.527271   4804.348146  -8012.517354    474.980774                    
V 29 -10154.752833  -2786.794911  29687.953229      0.031364                    
P 31   4527.394829  23472.347120  11432.935794    326.966671                    
V 31  -8868.413580 -11440.248103  27683.180546      0.007661                    
P 32  14394.122172   6202.394329  21504.583866   -544.580963                    
V 32 -14592.438817  22907.459063   3708.301167      0.032724                    
EOF
